<?xml version="1.0" encoding="UTF-8"?>
<kml xmlns="http://www.opengis.net/kml/2.2">
  <Document>
    <name>Daerah Kedah</name>
    <Style id="poly-000000-1200-77-nodesc-normal">
      <LineStyle>
        <color>ff000000</color>
        <width>1.2</width>
      </LineStyle>
      <PolyStyle>
        <color>4d000000</color>
        <fill>1</fill>
        <outline>1</outline>
      </PolyStyle>
      <BalloonStyle>
        <text><![CDATA[<h3>$[name]</h3>]]></text>
      </BalloonStyle>
    </Style>
    <Style id="poly-000000-1200-77-nodesc-highlight">
      <LineStyle>
        <color>ff000000</color>
        <width>1.8</width>
      </LineStyle>
      <PolyStyle>
        <color>4d000000</color>
        <fill>1</fill>
        <outline>1</outline>
      </PolyStyle>
      <BalloonStyle>
        <text><![CDATA[<h3>$[name]</h3>]]></text>
      </BalloonStyle>
    </Style>
    <StyleMap id="poly-000000-1200-77-nodesc">
      <Pair>
        <key>normal</key>
        <styleUrl>#poly-000000-1200-77-nodesc-normal</styleUrl>
      </Pair>
      <Pair>
        <key>highlight</key>
        <styleUrl>#poly-000000-1200-77-nodesc-highlight</styleUrl>
      </Pair>
    </StyleMap>
    <Style id="poly-0288D1-1200-77-nodesc-normal">
      <LineStyle>
        <color>ffd18802</color>
        <width>1.2</width>
      </LineStyle>
      <PolyStyle>
        <color>4dd18802</color>
        <fill>1</fill>
        <outline>1</outline>
      </PolyStyle>
      <BalloonStyle>
        <text><![CDATA[<h3>$[name]</h3>]]></text>
      </BalloonStyle>
    </Style>
    <Style id="poly-0288D1-1200-77-nodesc-highlight">
      <LineStyle>
        <color>ffd18802</color>
        <width>1.8</width>
      </LineStyle>
      <PolyStyle>
        <color>4dd18802</color>
        <fill>1</fill>
        <outline>1</outline>
      </PolyStyle>
      <BalloonStyle>
        <text><![CDATA[<h3>$[name]</h3>]]></text>
      </BalloonStyle>
    </Style>
    <StyleMap id="poly-0288D1-1200-77-nodesc">
      <Pair>
        <key>normal</key>
        <styleUrl>#poly-0288D1-1200-77-nodesc-normal</styleUrl>
      </Pair>
      <Pair>
        <key>highlight</key>
        <styleUrl>#poly-0288D1-1200-77-nodesc-highlight</styleUrl>
      </Pair>
    </StyleMap>
    <Style id="poly-097138-1200-77-nodesc-normal">
      <LineStyle>
        <color>ff387109</color>
        <width>1.2</width>
      </LineStyle>
      <PolyStyle>
        <color>4d387109</color>
        <fill>1</fill>
        <outline>1</outline>
      </PolyStyle>
      <BalloonStyle>
        <text><![CDATA[<h3>$[name]</h3>]]></text>
      </BalloonStyle>
    </Style>
    <Style id="poly-097138-1200-77-nodesc-highlight">
      <LineStyle>
        <color>ff387109</color>
        <width>1.8</width>
      </LineStyle>
      <PolyStyle>
        <color>4d387109</color>
        <fill>1</fill>
        <outline>1</outline>
      </PolyStyle>
      <BalloonStyle>
        <text><![CDATA[<h3>$[name]</h3>]]></text>
      </BalloonStyle>
    </Style>
    <StyleMap id="poly-097138-1200-77-nodesc">
      <Pair>
        <key>normal</key>
        <styleUrl>#poly-097138-1200-77-nodesc-normal</styleUrl>
      </Pair>
      <Pair>
        <key>highlight</key>
        <styleUrl>#poly-097138-1200-77-nodesc-highlight</styleUrl>
      </Pair>
    </StyleMap>
    <Style id="poly-880E4F-1200-77-nodesc-normal">
      <LineStyle>
        <color>ff4f0e88</color>
        <width>1.2</width>
      </LineStyle>
      <PolyStyle>
        <color>4d4f0e88</color>
        <fill>1</fill>
        <outline>1</outline>
      </PolyStyle>
      <BalloonStyle>
        <text><![CDATA[<h3>$[name]</h3>]]></text>
      </BalloonStyle>
    </Style>
    <Style id="poly-880E4F-1200-77-nodesc-highlight">
      <LineStyle>
        <color>ff4f0e88</color>
        <width>1.8</width>
      </LineStyle>
      <PolyStyle>
        <color>4d4f0e88</color>
        <fill>1</fill>
        <outline>1</outline>
      </PolyStyle>
      <BalloonStyle>
        <text><![CDATA[<h3>$[name]</h3>]]></text>
      </BalloonStyle>
    </Style>
    <StyleMap id="poly-880E4F-1200-77-nodesc">
      <Pair>
        <key>normal</key>
        <styleUrl>#poly-880E4F-1200-77-nodesc-normal</styleUrl>
      </Pair>
      <Pair>
        <key>highlight</key>
        <styleUrl>#poly-880E4F-1200-77-nodesc-highlight</styleUrl>
      </Pair>
    </StyleMap>
    <Style id="poly-9C27B0-1200-77-nodesc-normal">
      <LineStyle>
        <color>ffb0279c</color>
        <width>1.2</width>
      </LineStyle>
      <PolyStyle>
        <color>4db0279c</color>
        <fill>1</fill>
        <outline>1</outline>
      </PolyStyle>
      <BalloonStyle>
        <text><![CDATA[<h3>$[name]</h3>]]></text>
      </BalloonStyle>
    </Style>
    <Style id="poly-9C27B0-1200-77-nodesc-highlight">
      <LineStyle>
        <color>ffb0279c</color>
        <width>1.8</width>
      </LineStyle>
      <PolyStyle>
        <color>4db0279c</color>
        <fill>1</fill>
        <outline>1</outline>
      </PolyStyle>
      <BalloonStyle>
        <text><![CDATA[<h3>$[name]</h3>]]></text>
      </BalloonStyle>
    </Style>
    <StyleMap id="poly-9C27B0-1200-77-nodesc">
      <Pair>
        <key>normal</key>
        <styleUrl>#poly-9C27B0-1200-77-nodesc-normal</styleUrl>
      </Pair>
      <Pair>
        <key>highlight</key>
        <styleUrl>#poly-9C27B0-1200-77-nodesc-highlight</styleUrl>
      </Pair>
    </StyleMap>
    <Style id="poly-9FA8DA-1200-77-nodesc-normal">
      <LineStyle>
        <color>ffdaa89f</color>
        <width>1.2</width>
      </LineStyle>
      <PolyStyle>
        <color>4ddaa89f</color>
        <fill>1</fill>
        <outline>1</outline>
      </PolyStyle>
      <BalloonStyle>
        <text><![CDATA[<h3>$[name]</h3>]]></text>
      </BalloonStyle>
    </Style>
    <Style id="poly-9FA8DA-1200-77-nodesc-highlight">
      <LineStyle>
        <color>ffdaa89f</color>
        <width>1.8</width>
      </LineStyle>
      <PolyStyle>
        <color>4ddaa89f</color>
        <fill>1</fill>
        <outline>1</outline>
      </PolyStyle>
      <BalloonStyle>
        <text><![CDATA[<h3>$[name]</h3>]]></text>
      </BalloonStyle>
    </Style>
    <StyleMap id="poly-9FA8DA-1200-77-nodesc">
      <Pair>
        <key>normal</key>
        <styleUrl>#poly-9FA8DA-1200-77-nodesc-normal</styleUrl>
      </Pair>
      <Pair>
        <key>highlight</key>
        <styleUrl>#poly-9FA8DA-1200-77-nodesc-highlight</styleUrl>
      </Pair>
    </StyleMap>
    <Style id="poly-A52714-1200-77-nodesc-normal">
      <LineStyle>
        <color>ff1427a5</color>
        <width>1.2</width>
      </LineStyle>
      <PolyStyle>
        <color>4d1427a5</color>
        <fill>1</fill>
        <outline>1</outline>
      </PolyStyle>
      <BalloonStyle>
        <text><![CDATA[<h3>$[name]</h3>]]></text>
      </BalloonStyle>
    </Style>
    <Style id="poly-A52714-1200-77-nodesc-highlight">
      <LineStyle>
        <color>ff1427a5</color>
        <width>1.8</width>
      </LineStyle>
      <PolyStyle>
        <color>4d1427a5</color>
        <fill>1</fill>
        <outline>1</outline>
      </PolyStyle>
      <BalloonStyle>
        <text><![CDATA[<h3>$[name]</h3>]]></text>
      </BalloonStyle>
    </Style>
    <StyleMap id="poly-A52714-1200-77-nodesc">
      <Pair>
        <key>normal</key>
        <styleUrl>#poly-A52714-1200-77-nodesc-normal</styleUrl>
      </Pair>
      <Pair>
        <key>highlight</key>
        <styleUrl>#poly-A52714-1200-77-nodesc-highlight</styleUrl>
      </Pair>
    </StyleMap>
    <Style id="poly-E65100-1200-77-nodesc-normal">
      <LineStyle>
        <color>ff0051e6</color>
        <width>1.2</width>
      </LineStyle>
      <PolyStyle>
        <color>4d0051e6</color>
        <fill>1</fill>
        <outline>1</outline>
      </PolyStyle>
      <BalloonStyle>
        <text><![CDATA[<h3>$[name]</h3>]]></text>
      </BalloonStyle>
    </Style>
    <Style id="poly-E65100-1200-77-nodesc-highlight">
      <LineStyle>
        <color>ff0051e6</color>
        <width>1.8</width>
      </LineStyle>
      <PolyStyle>
        <color>4d0051e6</color>
        <fill>1</fill>
        <outline>1</outline>
      </PolyStyle>
      <BalloonStyle>
        <text><![CDATA[<h3>$[name]</h3>]]></text>
      </BalloonStyle>
    </Style>
    <StyleMap id="poly-E65100-1200-77-nodesc">
      <Pair>
        <key>normal</key>
        <styleUrl>#poly-E65100-1200-77-nodesc-normal</styleUrl>
      </Pair>
      <Pair>
        <key>highlight</key>
        <styleUrl>#poly-E65100-1200-77-nodesc-highlight</styleUrl>
      </Pair>
    </StyleMap>
    <Style id="poly-F9A825-1200-77-nodesc-normal">
      <LineStyle>
        <color>ff25a8f9</color>
        <width>1.2</width>
      </LineStyle>
      <PolyStyle>
        <color>4d25a8f9</color>
        <fill>1</fill>
        <outline>1</outline>
      </PolyStyle>
      <BalloonStyle>
        <text><![CDATA[<h3>$[name]</h3>]]></text>
      </BalloonStyle>
    </Style>
    <Style id="poly-F9A825-1200-77-nodesc-highlight">
      <LineStyle>
        <color>ff25a8f9</color>
        <width>1.8</width>
      </LineStyle>
      <PolyStyle>
        <color>4d25a8f9</color>
        <fill>1</fill>
        <outline>1</outline>
      </PolyStyle>
      <BalloonStyle>
        <text><![CDATA[<h3>$[name]</h3>]]></text>
      </BalloonStyle>
    </Style>
    <StyleMap id="poly-F9A825-1200-77-nodesc">
      <Pair>
        <key>normal</key>
        <styleUrl>#poly-F9A825-1200-77-nodesc-normal</styleUrl>
      </Pair>
      <Pair>
        <key>highlight</key>
        <styleUrl>#poly-F9A825-1200-77-nodesc-highlight</styleUrl>
      </Pair>
    </StyleMap>
    <Style id="poly-FF5252-1200-77-nodesc-normal">
      <LineStyle>
        <color>ff5252ff</color>
        <width>1.2</width>
      </LineStyle>
      <PolyStyle>
        <color>4d5252ff</color>
        <fill>1</fill>
        <outline>1</outline>
      </PolyStyle>
      <BalloonStyle>
        <text><![CDATA[<h3>$[name]</h3>]]></text>
      </BalloonStyle>
    </Style>
    <Style id="poly-FF5252-1200-77-nodesc-highlight">
      <LineStyle>
        <color>ff5252ff</color>
        <width>1.8</width>
      </LineStyle>
      <PolyStyle>
        <color>4d5252ff</color>
        <fill>1</fill>
        <outline>1</outline>
      </PolyStyle>
      <BalloonStyle>
        <text><![CDATA[<h3>$[name]</h3>]]></text>
      </BalloonStyle>
    </Style>
    <StyleMap id="poly-FF5252-1200-77-nodesc">
      <Pair>
        <key>normal</key>
        <styleUrl>#poly-FF5252-1200-77-nodesc-normal</styleUrl>
      </Pair>
      <Pair>
        <key>highlight</key>
        <styleUrl>#poly-FF5252-1200-77-nodesc-highlight</styleUrl>
      </Pair>
    </StyleMap>
    <Style id="poly-FFFF8D-1200-77-nodesc-normal">
      <LineStyle>
        <color>ff8dffff</color>
        <width>1.2</width>
      </LineStyle>
      <PolyStyle>
        <color>4d8dffff</color>
        <fill>1</fill>
        <outline>1</outline>
      </PolyStyle>
      <BalloonStyle>
        <text><![CDATA[<h3>$[name]</h3>]]></text>
      </BalloonStyle>
    </Style>
    <Style id="poly-FFFF8D-1200-77-nodesc-highlight">
      <LineStyle>
        <color>ff8dffff</color>
        <width>1.8</width>
      </LineStyle>
      <PolyStyle>
        <color>4d8dffff</color>
        <fill>1</fill>
        <outline>1</outline>
      </PolyStyle>
      <BalloonStyle>
        <text><![CDATA[<h3>$[name]</h3>]]></text>
      </BalloonStyle>
    </Style>
    <StyleMap id="poly-FFFF8D-1200-77-nodesc">
      <Pair>
        <key>normal</key>
        <styleUrl>#poly-FFFF8D-1200-77-nodesc-normal</styleUrl>
      </Pair>
      <Pair>
        <key>highlight</key>
        <styleUrl>#poly-FFFF8D-1200-77-nodesc-highlight</styleUrl>
      </Pair>
    </StyleMap>
    <Placemark>
      <name>Langkawi</name>
      <styleUrl>#poly-000000-1200-77-nodesc</styleUrl>
      <Polygon>
        <outerBoundaryIs>
          <LinearRing>
            <tessellate>1</tessellate>
            <coordinates>
              99.6551741,6.3596883,0
              99.7101057,6.3610531,0
              99.711479,6.3091867,0
              99.6771467,6.2914418,0
              99.7197188,6.2887117,0
              99.7252119,6.2600454,0
              99.7430647,6.2832516,0
              99.7801436,6.2832516,0
              99.8117293,6.3201064,0
              99.8323286,6.3009968,0
              99.7664106,6.2327426,0
              99.7458113,6.2368381,0
              99.7128523,6.2286471,0
              99.7293318,6.1904205,0
              99.7485579,6.1863247,0
              99.7526777,6.2136298,0
              99.7691572,6.2095341,0
              99.7925032,6.1399026,0
              99.8652876,6.2054384,0
              99.8460615,6.3091867,0
              99.8735273,6.2682359,0
              99.8584211,6.3105517,0
              99.8872603,6.3132816,0
              99.8817671,6.3009968,0
              99.9202192,6.3009968,0
              99.9435652,6.3119167,0
              99.9160994,6.3242012,0
              99.9119795,6.3569586,0
              99.9119795,6.3979024,0
              99.8913801,6.4565827,0
              99.8803938,6.4224671,0
              99.8309553,6.477051,0
              99.8007429,6.4251964,0
              99.7595442,6.418373,0
              99.7032393,6.4361136,0
              99.6441877,6.4320197,0
              99.6428145,6.3760661,0
              99.6551741,6.3596883,0
            </coordinates>
          </LinearRing>
        </outerBoundaryIs>
      </Polygon>
    </Placemark>
    <Placemark>
      <name>Kubang Pasu</name>
      <styleUrl>#poly-FFFF8D-1200-77-nodesc</styleUrl>
      <Polygon>
        <outerBoundaryIs>
          <LinearRing>
            <tessellate>1</tessellate>
            <coordinates>
              100.3665388,6.5357222,0
              100.3665388,6.4483952,0
              100.3006209,6.3979024,0
              100.2470625,6.328296,0
              100.1935042,6.2504896,0
              100.2621687,6.1945164,0
              100.5533064,6.2846166,0
              100.5574263,6.4838736,0
              100.3665388,6.5357222,0
            </coordinates>
          </LinearRing>
        </outerBoundaryIs>
      </Polygon>
    </Placemark>
    <Placemark>
      <name>Kota Setar</name>
      <styleUrl>#poly-E65100-1200-77-nodesc</styleUrl>
      <Polygon>
        <outerBoundaryIs>
          <LinearRing>
            <tessellate>1</tessellate>
            <coordinates>
              100.2621687,6.1945164,0
              100.2800215,6.092111,0
              100.32946,6.0484121,0
              100.3555525,5.9254901,0
              100.4077376,5.945979,0
              100.4626692,6.1385372,0
              100.6563032,6.1494604,0
              100.5533064,6.2846166,0
              100.4091108,6.2395684,0
              100.2621687,6.1945164,0
            </coordinates>
          </LinearRing>
        </outerBoundaryIs>
      </Polygon>
    </Placemark>
    <Placemark>
      <name>Padang Terap</name>
      <styleUrl>#poly-0288D1-1200-77-nodesc</styleUrl>
      <Polygon>
        <outerBoundaryIs>
          <LinearRing>
            <tessellate>1</tessellate>
            <coordinates>
              100.5574263,6.4838736,0
              100.5533064,6.2846166,0
              100.6563032,6.1494604,0
              100.7146307,6.0454193,0
              100.848564,6.1685755,0
              100.8554304,6.2341078,0
              100.8430708,6.3105517,0
              100.8183516,6.4320197,0
              100.7318342,6.498883,0
              100.6508101,6.445666,0
              100.5574263,6.4838736,0
            </coordinates>
          </LinearRing>
        </outerBoundaryIs>
      </Polygon>
    </Placemark>
    <Placemark>
      <name>Yan</name>
      <styleUrl>#poly-9FA8DA-1200-77-nodesc</styleUrl>
      <Polygon>
        <outerBoundaryIs>
          <LinearRing>
            <tessellate>1</tessellate>
            <coordinates>
              100.3555525,5.9254901,0
              100.3644415,5.7995465,0
              100.3548284,5.712099,0
              100.3781744,5.7161984,0
              100.475678,5.8186738,0
              100.4077376,5.945979,0
              100.3555525,5.9254901,0
            </coordinates>
          </LinearRing>
        </outerBoundaryIs>
      </Polygon>
    </Placemark>
    <Placemark>
      <name>Pendang</name>
      <styleUrl>#poly-FF5252-1200-77-nodesc</styleUrl>
      <Polygon>
        <outerBoundaryIs>
          <LinearRing>
            <tessellate>1</tessellate>
            <coordinates>
              100.6563032,6.1494604,0
              100.4626692,6.1385372,0
              100.4077376,5.945979,0
              100.475678,5.8186738,0
              100.7146307,6.0454193,0
              100.6563032,6.1494604,0
            </coordinates>
          </LinearRing>
        </outerBoundaryIs>
      </Polygon>
    </Placemark>
    <Placemark>
      <name>Sik</name>
      <styleUrl>#poly-9C27B0-1200-77-nodesc</styleUrl>
      <Polygon>
        <outerBoundaryIs>
          <LinearRing>
            <tessellate>1</tessellate>
            <coordinates>
              100.8554304,6.2341078,0
              100.848564,6.1685755,0
              100.6116338,5.9475706,0
              100.6349798,5.9011281,0
              100.6281133,5.780906,0
              100.6857916,5.7822723,0
              100.73523,5.8068652,0
              100.8917852,5.8615123,0
              100.9068914,5.9666929,0
              100.9151312,6.0527347,0
              101.1279913,6.1059918,0
              101.0689397,6.1510515,0
              101.1293646,6.1933767,0
              101.1073919,6.2534454,0
              101.027741,6.2411592,0
              100.975556,6.2752869,0
              100.9412237,6.239794,0
              100.876679,6.24935,0
              100.8554304,6.2341078,0
            </coordinates>
          </LinearRing>
        </outerBoundaryIs>
      </Polygon>
    </Placemark>
    <Placemark>
      <name>Baling</name>
      <styleUrl>#poly-097138-1200-77-nodesc</styleUrl>
      <Polygon>
        <outerBoundaryIs>
          <LinearRing>
            <tessellate>1</tessellate>
            <coordinates>
              101.1279913,6.1059918,0
              100.9151312,6.0527347,0
              100.8917852,5.8615123,0
              100.7228704,5.8027664,0
              100.6857916,5.7822723,0
              100.6281133,5.780906,0
              100.6198736,5.6784237,0
              100.5937811,5.6442589,0
              100.62674,5.5827572,0
              100.7008978,5.595058,0
              100.7709356,5.5936913,0
              100.8286138,5.6223924,0
              100.8629461,5.5226159,0
              100.8931585,5.4952769,0
              100.9343572,5.5157813,0
              100.9796758,5.6975551,0
              100.9508367,5.7658764,0
              101.0071417,5.8273585,0
              101.0387273,5.9366433,0
              101.1252447,5.9434729,0
              101.1279913,6.1059918,0
            </coordinates>
          </LinearRing>
        </outerBoundaryIs>
      </Polygon>
    </Placemark>
    <Placemark>
      <name>Kuala Muda</name>
      <styleUrl>#poly-A52714-1200-77-nodesc</styleUrl>
      <Polygon>
        <outerBoundaryIs>
          <LinearRing>
            <tessellate>1</tessellate>
            <coordinates>
              100.6116338,5.9475706,0
              100.3781744,5.7161984,0
              100.3548284,5.712099,0
              100.3630682,5.6784237,0
              100.3417829,5.6633916,0
              100.3421266,5.6285433,0
              100.3395508,5.5810501,0
              100.373967,5.5887377,0
              100.41388,5.5745565,0
              100.4317327,5.5649888,0
              100.4482122,5.5622551,0
              100.5058904,5.5622551,0
              100.531983,5.5540541,0
              100.5731817,5.534918,0
              100.62674,5.5827572,0
              100.5937811,5.6442589,0
              100.6198736,5.6784237,0
              100.6349798,5.9011281,0
              100.6116338,5.9475706,0
            </coordinates>
          </LinearRing>
        </outerBoundaryIs>
      </Polygon>
    </Placemark>
    <Placemark>
      <name>Kulim</name>
      <styleUrl>#poly-880E4F-1200-77-nodesc</styleUrl>
      <Polygon>
        <outerBoundaryIs>
          <LinearRing>
            <tessellate>1</tessellate>
            <coordinates>
              100.531983,5.5540541,0
              100.5237442,5.4098174,0
              100.5402227,5.2655807,0
              100.6349798,5.2888277,0
              100.6981512,5.2491705,0
              100.7462164,5.3120738,0
              100.7997747,5.3230129,0
              100.8547063,5.3872758,0
              100.8931585,5.4952769,0
              100.8629461,5.5226159,0
              100.8286138,5.6223924,0
              100.7709356,5.5936913,0
              100.7008978,5.595058,0
              100.62674,5.5827572,0
              100.5731817,5.534918,0
              100.531983,5.5540541,0
            </coordinates>
          </LinearRing>
        </outerBoundaryIs>
      </Polygon>
    </Placemark>
    <Placemark>
      <name>Bandar Baharu</name>
      <styleUrl>#poly-F9A825-1200-77-nodesc</styleUrl>
      <Polygon>
        <outerBoundaryIs>
          <LinearRing>
            <tessellate>1</tessellate>
            <coordinates>
              100.5402227,5.2655807,0
              100.5502226,5.1400173,0
              100.4966643,5.1249717,0
              100.5172636,5.1030865,0
              100.5557158,5.0770968,0
              100.5996611,5.1195004,0
              100.6614592,5.1878874,0
              100.6981512,5.2491705,0
              100.6349798,5.2888277,0
              100.5402227,5.2655807,0
            </coordinates>
          </LinearRing>
        </outerBoundaryIs>
      </Polygon>
    </Placemark>
  </Document>
</kml>
